{"type":"FeatureCollection", "features": [
{"type":"Feature","geometry":{"type":"MultiPolygon","coordinates":[[[[-2.36165,42.67815],[-2.36195,42.67875],[-2.3645,42.6785],[-2.3632,42.67715],[-2.36165,42.67815]]],[[[-2.3656,42.68065],[-2.3659,42.68155],[-2.36835,42.68225],[-2.3698,42.6802],[-2.3672,42.67895],[-2.36625,42.6793],[-2.36395,42.67865],[-2.3638,42.68],[-2.3656,42.68065]]]]},"properties":{"CODIGO":"F007A","A_FUNC_CAS":"ALAVA CENTRAL","ZLS":"Fotovoltaica","HECTARIAS":14.8707528898}},
{"type":"Feature","geometry":{"type":"MultiPolygon","coordinates":[[[[-2.9936,42.7313],[-2.99635,42.73145],[-2.9974,42.72965],[-2.99245,42.72715],[-2.98885,42.72835],[-2.9876,42.7313],[-2.9887,42.7321],[-2.9936,42.73195],[-2.9936,42.7313]]],[[[-2.9965,42.7315],[-2.99745,42.73175],[-2.999,42.73065],[-2.9974,42.72975],[-2.9965,42.7315]]]]},"properties":{"CODIGO":"F019A","A_FUNC_CAS":"ALAVA CENTRAL","ZLS":"Fotovoltaica","HECTARIAS":33.0281011102}},
{"type":"Feature","geometry":{"type":"MultiPolygon","coordinates":[[[[-2.4112,42.85765],[-2.4096,42.85835],[-2.41305,42.85925],[-2.4125,42.85795],[-2.4112,42.85765]]],[[[-2.4172,42.86125],[-2.42025,42.86195],[-2.4214,42.86135],[-2.4172,42.86035],[-2.4162,42.85995],[-2.412,42.8591],[-2.40955,42.8584],[-2.40915,42.85995],[-2.4126,42.8601],[-2.4172,42.86125]]]]},"properties":{"CODIGO":"F070A","A_FUNC_CAS":"ALAVA CENTRAL","ZLS":"Fotovoltaica","HECTARIAS":16.8781785824}},
{"type":"Feature","geometry":{"type":"Polygon","coordinates":[[[-2.94985,42.7429],[-2.9516,42.74345],[-2.95045,42.7446],[-2.9502,42.7457],[-2.9515,42.7463],[-2.95265,42.7439],[-2.9545,42.7439],[-2.95435,42.74265],[-2.95115,42.74255],[-2.94985,42.7429]]]},"properties":{"CODIGO":"F023A","A_FUNC_CAS":"ALAVA CENTRAL","ZLS":"Fotovoltaica","HECTARIAS":12.4076473791}},
{"type":"Feature","geometry":{"type":"Polygon","coordinates":[[[-2.52035,42.87595],[-2.51975,42.87525],[-2.51665,42.8748],[-2.5167,42.8739],[-2.51135,42.8726],[-2.51025,42.87295],[-2.50995,42.8744],[-2.51145,42.87455],[-2.51485,42.8741],[-2.51485,42.8759],[-2.5194,42.87615],[-2.52035,42.87595]]]},"properties":{"CODIGO":"F083A","A_FUNC_CAS":"ALAVA CENTRAL","ZLS":"Fotovoltaica","HECTARIAS":21.0880750287}},
{"type":"Feature","geometry":{"type":"MultiPolygon","coordinates":[[[[-3.0587,42.79185],[-3.06035,42.7916],[-3.0611,42.79085],[-3.0605,42.7907],[-3.05915,42.7902],[-3.05855,42.7898],[-3.0547,42.7892],[-3.0526,42.78925],[-3.05655,42.7916],[-3.0587,42.79185]]],[[[-3.0603,42.79175],[-3.06235,42.79275],[-3.0649,42.79245],[-3.0635,42.79075],[-3.0612,42.7907],[-3.06115,42.79085],[-3.06055,42.79145],[-3.0603,42.79175]]]]},"properties":{"CODIGO":"F035A","A_FUNC_CAS":"ALAVA CENTRAL","ZLS":"Fotovoltaica","HECTARIAS":16.4964464195}},
{"type":"Feature","geometry":{"type":"MultiPolygon","coordinates":[[[[-2.5698,42.8886],[-2.5726,42.8892],[-2.5726,42.88785],[-2.56925,42.88805],[-2.5677,42.88715],[-2.56585,42.88695],[-2.56375,42.88555],[-2.56225,42.88675],[-2.56295,42.88685],[-2.56535,42.88765],[-2.5686,42.8885],[-2.5698,42.8886]]],[[[-2.56955,42.88885],[-2.567,42.88825],[-2.5632,42.887],[-2.5623,42.8873],[-2.56205,42.8892],[-2.5635,42.88985],[-2.5689,42.88965],[-2.56955,42.88885]]],[[[-2.56555,42.8921],[-2.56245,42.89185],[-2.56175,42.89255],[-2.56625,42.89315],[-2.5671,42.891],[-2.564,42.89095],[-2.56555,42.8921]]],[[[-2.57255,42.8919],[-2.57105,42.89215],[-2.5695,42.8912],[-2.56715,42.891],[-2.5665,42.8932],[-2.56975,42.89385],[-2.5719,42.89275],[-2.57255,42.8919]]],[[[-2.5575,42.889],[-2.55955,42.8895],[-2.56115,42.8892],[-2.56215,42.88785],[-2.5619,42.88465],[-2.5597,42.8873],[-2.56005,42.88825],[-2.5575,42.889]]],[[[-2.5637,42.89495],[-2.5679,42.8953],[-2.56955,42.89395],[-2.56635,42.8932],[-2.56155,42.8926],[-2.5582,42.89275],[-2.55635,42.8923],[-2.555,42.8935],[-2.5565,42.8943],[-2.56,42.89495],[-2.56185,42.89455],[-2.5637,42.89495]]]]},"properties":{"CODIGO":"F095A","A_FUNC_CAS":"ALAVA CENTRAL","ZLS":"Fotovoltaica","HECTARIAS":77.414810687}},
{"type":"Feature","geometry":{"type":"Polygon","coordinates":[[[-2.97985,42.7336],[-2.982,42.7351],[-2.98435,42.7355],[-2.98505,42.73445],[-2.9829,42.73375],[-2.98135,42.734],[-2.98015,42.73265],[-2.97375,42.7322],[-2.9723,42.73295],[-2.9732,42.73385],[-2.97495,42.73345],[-2.9781,42.73325],[-2.97985,42.7336]]]},"properties":{"CODIGO":"F020A","A_FUNC_CAS":"ALAVA CENTRAL","ZLS":"Fotovoltaica","HECTARIAS":18.3266289649}},
{"type":"Feature","geometry":{"type":"MultiPolygon","coordinates":[[[[-2.42035,42.89845],[-2.4181,42.898],[-2.41925,42.8999],[-2.42095,42.9002],[-2.42035,42.89845]]],[[[-2.41545,42.8985],[-2.41485,42.9017],[-2.41555,42.90165],[-2.41915,42.9],[-2.4181,42.898],[-2.41545,42.8985]]],[[[-2.41685,42.9011],[-2.4197,42.9016],[-2.42095,42.90025],[-2.4192,42.9],[-2.41685,42.9011]]]]},"properties":{"CODIGO":"F100A","A_FUNC_CAS":"ALAVA CENTRAL","ZLS":"Fotovoltaica","HECTARIAS":16.7185213796}},
{"type":"Feature","geometry":{"type":"MultiPolygon","coordinates":[[[[-2.45055,42.7741],[-2.4526,42.7762],[-2.45545,42.7756],[-2.45145,42.77475],[-2.45055,42.7741]]],[[[-2.44685,42.77565],[-2.4493,42.77755],[-2.4503,42.77735],[-2.4498,42.77565],[-2.44785,42.7746],[-2.44685,42.77565]]],[[[-2.44905,42.7776],[-2.44915,42.7781],[-2.45425,42.77875],[-2.456,42.77815],[-2.4543,42.7772],[-2.4537,42.77845],[-2.44905,42.7776]]]]},"properties":{"CODIGO":"F032A","A_FUNC_CAS":"ALAVA CENTRAL","ZLS":"Fotovoltaica","HECTARIAS":19.7697752219}},
{"type":"Feature","geometry":{"type":"Polygon","coordinates":[[[-2.42075,42.92005],[-2.42135,42.92075],[-2.42165,42.92305],[-2.42405,42.9219],[-2.4278,42.9211],[-2.4296,42.92125],[-2.43045,42.9199],[-2.42905,42.91935],[-2.42555,42.917],[-2.42385,42.91715],[-2.4217,42.91805],[-2.42015,42.91965],[-2.42075,42.92005]]]},"properties":{"CODIGO":"F112A","A_FUNC_CAS":"ALAVA CENTRAL","ZLS":"Fotovoltaica","HECTARIAS":35.3212440042}},
{"type":"Feature","geometry":{"type":"Polygon","coordinates":[[[-2.50065,42.8181],[-2.50075,42.8196],[-2.5031,42.82135],[-2.50375,42.8195],[-2.50065,42.8181]]]},"properties":{"CODIGO":"F043A","A_FUNC_CAS":"ALAVA CENTRAL","ZLS":"Fotovoltaica","HECTARIAS":11.8961562531}},
{"type":"Feature","geometry":{"type":"MultiPolygon","coordinates":[[[[-2.431,42.8724],[-2.4328,42.87265],[-2.43295,42.8714],[-2.4263,42.87125],[-2.4245,42.87045],[-2.42265,42.8704],[-2.42205,42.87145],[-2.431,42.8724]]],[[[-2.43295,42.8727],[-2.43615,42.87285],[-2.4358,42.8719],[-2.433,42.8714],[-2.43295,42.8727]]]]},"properties":{"CODIGO":"F078A","A_FUNC_CAS":"ALAVA CENTRAL","ZLS":"Fotovoltaica","HECTARIAS":12.4968667804}},
{"type":"Feature","geometry":{"type":"MultiPolygon","coordinates":[[[[-2.53815,42.82595],[-2.5371,42.8242],[-2.5353,42.82325],[-2.53455,42.82385],[-2.5346,42.8254],[-2.5348,42.82575],[-2.5363,42.8266],[-2.53695,42.8272],[-2.53815,42.82595]]],[[[-2.5291,42.8271],[-2.52585,42.8291],[-2.52675,42.83165],[-2.5277,42.83225],[-2.52895,42.8305],[-2.5313,42.82895],[-2.53405,42.8279],[-2.53695,42.8274],[-2.53625,42.82665],[-2.5348,42.8258],[-2.5346,42.8255],[-2.5345,42.8239],[-2.5318,42.8252],[-2.5291,42.8271]]],[[[-2.5327,42.8405],[-2.5343,42.83845],[-2.53175,42.8381],[-2.5327,42.8405]]],[[[-2.5316,42.83805],[-2.53,42.83815],[-2.52945,42.84225],[-2.5314,42.84305],[-2.5325,42.8407],[-2.5316,42.83805]]],[[[-2.5259,42.83205],[-2.52375,42.83295],[-2.5232,42.8344],[-2.5267,42.83475],[-2.5264,42.83335],[-2.52675,42.83165],[-2.52575,42.8291],[-2.5248,42.8297],[-2.52505,42.8316],[-2.5259,42.83205]]]]},"properties":{"CODIGO":"F055A","A_FUNC_CAS":"ALAVA CENTRAL","ZLS":"Fotovoltaica","HECTARIAS":61.4949803269}},
{"type":"Feature","geometry":{"type":"MultiPolygon","coordinates":[[[[-2.38775,42.66255],[-2.38895,42.66165],[-2.38925,42.65985],[-2.3884,42.6594],[-2.38675,42.6621],[-2.38775,42.66255]]],[[[-2.39235,42.66125],[-2.38935,42.6595],[-2.389,42.6621],[-2.3902,42.6628],[-2.39235,42.6626],[-2.39235,42.66125]]],[[[-2.39725,42.6633],[-2.3968,42.66405],[-2.3988,42.66565],[-2.3998,42.66485],[-2.39725,42.6633]]],[[[-2.3911,42.66415],[-2.3942,42.66495],[-2.39415,42.66585],[-2.39595,42.66665],[-2.39725,42.6661],[-2.39875,42.6657],[-2.3967,42.664],[-2.3911,42.66415]]],[[[-2.399,42.6671],[-2.39925,42.6656],[-2.3973,42.66615],[-2.3978,42.6671],[-2.399,42.6671]]]]},"properties":{"CODIGO":"F004A","A_FUNC_CAS":"ALAVA CENTRAL","ZLS":"Fotovoltaica","HECTARIAS":32.3635476605}},
{"type":"Feature","geometry":{"type":"Polygon","coordinates":[[[-3.0316,43.08675],[-3.03225,43.0852],[-3.0307,43.08505],[-3.0316,43.08675]]]},"properties":{"CODIGO":"F133A","A_FUNC_CAS":"AYALA","ZLS":"Fotovoltaica","HECTARIAS":6.42577833013}},
{"type":"Feature","geometry":{"type":"Polygon","coordinates":[[[-3.0046,43.0717],[-3.00405,43.0735],[-3.00585,43.07355],[-3.0063,43.07065],[-3.0046,43.0717]]]},"properties":{"CODIGO":"F129A","A_FUNC_CAS":"AYALA","ZLS":"Fotovoltaica","HECTARIAS":8.33545628969}},
{"type":"Feature","geometry":{"type":"Polygon","coordinates":[[[-2.84375,43.31],[-2.8448,43.3092],[-2.8422,43.3074],[-2.8418,43.3093],[-2.84375,43.31]]]},"properties":{"CODIGO":"F145B","A_FUNC_CAS":"BILBAO METROPOLITANO / MUNGIALDEA","ZLS":"Fotovoltaica","HECTARIAS":5.49636813249}},
{"type":"Feature","geometry":{"type":"Polygon","coordinates":[[[-2.96505,43.04425],[-2.9681,43.0431],[-2.9681,43.04195],[-2.9693,43.04105],[-2.9697,43.0388],[-2.969,43.0378],[-2.96715,43.0398],[-2.9658,43.04055],[-2.9641,43.0406],[-2.96595,43.04265],[-2.96505,43.04425]]]},"properties":{"CODIGO":"F121A","A_FUNC_CAS":"AYALA","ZLS":"Fotovoltaica","HECTARIAS":17.4486627315}},
{"type":"Feature","geometry":{"type":"MultiPolygon","coordinates":[[[[-2.5171,42.86015],[-2.518,42.8604],[-2.51895,42.85905],[-2.52045,42.85905],[-2.5208,42.8575],[-2.52385,42.8584],[-2.52385,42.8593],[-2.52015,42.8595],[-2.52015,42.8602],[-2.5235,42.8602],[-2.5241,42.86155],[-2.52505,42.8598],[-2.52565,42.8591],[-2.52765,42.85855],[-2.52905,42.85675],[-2.5309,42.85685],[-2.5306,42.8548],[-2.52875,42.85525],[-2.52815,42.8539],[-2.52025,42.8534],[-2.5194,42.85685],[-2.518,42.857],[-2.5177,42.8599],[-2.5171,42.86015]]],[[[-2.52615,42.8609],[-2.5263,42.86],[-2.52505,42.85995],[-2.5239,42.8626],[-2.52805,42.863],[-2.5281,42.8621],[-2.5259,42.86185],[-2.52615,42.8609]]]]},"properties":{"CODIGO":"F071A","A_FUNC_CAS":"ALAVA CENTRAL","ZLS":"Fotovoltaica","HECTARIAS":61.7067699986}},
{"type":"Feature","geometry":{"type":"Polygon","coordinates":[[[-2.9441,42.7288],[-2.95025,42.7297],[-2.95295,42.7297],[-2.95605,42.72925],[-2.9553,42.72825],[-2.95275,42.72805],[-2.95295,42.72925],[-2.95145,42.72925],[-2.9483,42.72825],[-2.94595,42.7281],[-2.9441,42.7288]]]},"properties":{"CODIGO":"F016A","A_FUNC_CAS":"ALAVA CENTRAL","ZLS":"Fotovoltaica","HECTARIAS":14.6343590101}},
{"type":"Feature","geometry":{"type":"MultiPolygon","coordinates":[[[[-2.97385,42.7603],[-2.97295,42.7607],[-2.97535,42.76205],[-2.9771,42.7595],[-2.97545,42.75895],[-2.97385,42.7603]]],[[[-2.973,42.76085],[-2.97155,42.76155],[-2.9722,42.7641],[-2.97465,42.7638],[-2.9756,42.7622],[-2.973,42.76085]]],[[[-2.97135,42.7612],[-2.9704,42.76275],[-2.97055,42.7643],[-2.9722,42.7646],[-2.97135,42.7612]]]]},"properties":{"CODIGO":"F028A","A_FUNC_CAS":"ALAVA CENTRAL","ZLS":"Fotovoltaica","HECTARIAS":16.0579730728}},
{"type":"Feature","geometry":{"type":"MultiPolygon","coordinates":[[[[-2.52615,42.88195],[-2.5253,42.88385],[-2.5289,42.88335],[-2.5301,42.88185],[-2.52985,42.88115],[-2.53215,42.87935],[-2.5284,42.8796],[-2.52615,42.88195]]],[[[-2.52455,42.88585],[-2.52545,42.8863],[-2.5279,42.88605],[-2.52885,42.8834],[-2.52505,42.88395],[-2.52455,42.88585]]]]},"properties":{"CODIGO":"F092A","A_FUNC_CAS":"ALAVA CENTRAL","ZLS":"Fotovoltaica","HECTARIAS":20.4340656084}},
{"type":"Feature","geometry":{"type":"MultiPolygon","coordinates":[[[[-2.99165,42.7331],[-2.99115,42.73375],[-2.98715,42.73355],[-2.9868,42.7344],[-2.99135,42.73455],[-2.99165,42.7331]]],[[[-2.9954,42.7349],[-2.9946,42.73645],[-2.99815,42.736],[-2.99785,42.7351],[-2.9954,42.7349]]],[[[-2.98605,42.7371],[-2.9893,42.73905],[-2.9907,42.7408],[-2.99385,42.74085],[-2.9945,42.73985],[-2.9934,42.73785],[-2.9946,42.73645],[-2.99265,42.7358],[-2.989,42.736],[-2.9881,42.73535],[-2.9866,42.7358],[-2.98605,42.7371]]],[[[-2.9948,42.7369],[-2.9934,42.73785],[-2.99395,42.73865],[-2.99695,42.73735],[-2.9948,42.7369]]]]},"properties":{"CODIGO":"F021A","A_FUNC_CAS":"ALAVA CENTRAL","ZLS":"Fotovoltaica","HECTARIAS":39.1162989107}},
{"type":"Feature","geometry":{"type":"MultiPolygon","coordinates":[[[[-2.55495,42.86735],[-2.55265,42.86355],[-2.5513,42.8645],[-2.5519,42.86685],[-2.5517,42.8683],[-2.5558,42.86835],[-2.55495,42.86735]]],[[[-2.5559,42.8685],[-2.5517,42.8683],[-2.55115,42.8697],[-2.55185,42.86985],[-2.5528,42.8698],[-2.5562,42.86905],[-2.5559,42.8685]]],[[[-2.5547,42.8712],[-2.5542,42.8728],[-2.5587,42.87045],[-2.55645,42.86905],[-2.55245,42.8699],[-2.552,42.86995],[-2.5511,42.8708],[-2.5531,42.8721],[-2.5547,42.8712]]],[[[-2.55045,42.87235],[-2.55305,42.87215],[-2.5511,42.87095],[-2.55045,42.87235]]],[[[-2.5485,42.8736],[-2.54975,42.8747],[-2.5512,42.87455],[-2.55415,42.8728],[-2.5532,42.8722],[-2.55095,42.87335],[-2.5495,42.87285],[-2.5485,42.8736]]]]},"properties":{"CODIGO":"F080A","A_FUNC_CAS":"ALAVA CENTRAL","ZLS":"Fotovoltaica","HECTARIAS":38.2923122142}},
{"type":"Feature","geometry":{"type":"Polygon","coordinates":[[[-2.46025,42.78075],[-2.46535,42.7802],[-2.4646,42.7784],[-2.46245,42.7764],[-2.46215,42.7753],[-2.46025,42.77465],[-2.4607,42.77735],[-2.45785,42.77775],[-2.45845,42.7791],[-2.46025,42.78075]]]},"properties":{"CODIGO":"F033A","A_FUNC_CAS":"ALAVA CENTRAL","ZLS":"Fotovoltaica","HECTARIAS":21.2595932039}},
{"type":"Feature","geometry":{"type":"MultiPolygon","coordinates":[[[[-3.0509,42.79795],[-3.05425,42.7996],[-3.05505,42.80065],[-3.05715,42.80085],[-3.05745,42.7996],[-3.0547,42.7989],[-3.0526,42.79795],[-3.0509,42.79795]]],[[[-3.0516,42.79905],[-3.0519,42.8008],[-3.05425,42.79965],[-3.0516,42.79905]]],[[[-3.0539,42.8019],[-3.05655,42.8031],[-3.0584,42.8021],[-3.05635,42.8009],[-3.05355,42.8004],[-3.0539,42.8019]]]]},"properties":{"CODIGO":"F040A","A_FUNC_CAS":"ALAVA CENTRAL","ZLS":"Fotovoltaica","HECTARIAS":20.8460068482}},
{"type":"Feature","geometry":{"type":"Polygon","coordinates":[[[-2.5373,42.86025],[-2.5388,42.8607],[-2.5413,42.8589],[-2.5416,42.85735],[-2.5425,42.85665],[-2.54435,42.8567],[-2.5455,42.85515],[-2.541,42.8543],[-2.5398,42.85375],[-2.5377,42.8544],[-2.5352,42.85375],[-2.532,42.85345],[-2.53245,42.8562],[-2.53515,42.85865],[-2.5364,42.8589],[-2.5373,42.86025]]]},"properties":{"CODIGO":"F067A","A_FUNC_CAS":"ALAVA CENTRAL","ZLS":"Fotovoltaica","HECTARIAS":49.3000049699}},
{"type":"Feature","geometry":{"type":"MultiPolygon","coordinates":[[[[-2.52205,42.87015],[-2.52315,42.87175],[-2.52485,42.87215],[-2.5274,42.871],[-2.5261,42.8698],[-2.52205,42.87015]]],[[[-2.51515,42.87195],[-2.51385,42.873],[-2.51695,42.87365],[-2.51665,42.8718],[-2.51515,42.87195]]]]},"properties":{"CODIGO":"F079A","A_FUNC_CAS":"ALAVA CENTRAL","ZLS":"Fotovoltaica","HECTARIAS":14.4979376243}},
{"type":"Feature","geometry":{"type":"MultiPolygon","coordinates":[[[[-2.5913,42.9051],[-2.58885,42.905],[-2.5888,42.9041],[-2.588,42.90335],[-2.5827,42.9008],[-2.5826,42.8996],[-2.57865,42.89845],[-2.57715,42.89735],[-2.5756,42.8971],[-2.575,42.89745],[-2.5749,42.8975],[-2.57435,42.89745],[-2.57375,42.89755],[-2.57205,42.89875],[-2.57435,42.8998],[-2.5774,42.90045],[-2.57955,42.9005],[-2.5793,42.90255],[-2.58535,42.9042],[-2.58605,42.90575],[-2.5878,42.9048],[-2.58925,42.9051],[-2.5913,42.9051]]],[[[-2.57265,42.89245],[-2.57145,42.89445],[-2.5737,42.89375],[-2.57265,42.89245]]],[[[-2.5722,42.89635],[-2.5738,42.8973],[-2.5748,42.8975],[-2.57505,42.89735],[-2.57555,42.89685],[-2.5753,42.89685],[-2.5753,42.89595],[-2.57175,42.8949],[-2.5696,42.89395],[-2.56765,42.8958],[-2.571,42.89575],[-2.5722,42.89635]]]]},"properties":{"CODIGO":"F105A","A_FUNC_CAS":"ALAVA CENTRAL","ZLS":"Fotovoltaica","HECTARIAS":55.3675583297}},
{"type":"Feature","geometry":{"type":"MultiPolygon","coordinates":[[[[-2.4673,42.8333],[-2.46705,42.8313],[-2.4649,42.8316],[-2.4673,42.8333]]],[[[-2.46215,42.83225],[-2.46345,42.8329],[-2.4656,42.8327],[-2.46485,42.8316],[-2.4618,42.83055],[-2.46215,42.83225]]]]},"properties":{"CODIGO":"F052A","A_FUNC_CAS":"ALAVA CENTRAL","ZLS":"Fotovoltaica","HECTARIAS":11.4771174127}},
{"type":"Feature","geometry":{"type":"Polygon","coordinates":[[[-3.04685,43.0878],[-3.0473,43.0897],[-3.0479,43.09035],[-3.0492,43.09035],[-3.0478,43.08915],[-3.04685,43.0878]]]},"properties":{"CODIGO":"F134A","A_FUNC_CAS":"AYALA","ZLS":"Fotovoltaica","HECTARIAS":5.44566255473}},
{"type":"Feature","geometry":{"type":"Polygon","coordinates":[[[-2.57045,42.90825],[-2.57185,42.90895],[-2.57355,42.91105],[-2.5755,42.91085],[-2.57155,42.90835],[-2.57045,42.90825]]]},"properties":{"CODIGO":"F110A","A_FUNC_CAS":"ALAVA CENTRAL","ZLS":"Fotovoltaica","HECTARIAS":11.8930931741}},
{"type":"Feature","geometry":{"type":"MultiPolygon","coordinates":[[[[-2.3847,42.6639],[-2.3868,42.6646],[-2.38845,42.6645],[-2.38745,42.663],[-2.3859,42.663],[-2.3847,42.6639]]],[[[-2.3911,42.66415],[-2.38895,42.6639],[-2.38925,42.66595],[-2.3911,42.6664],[-2.3924,42.6655],[-2.3911,42.66415]]]]},"properties":{"CODIGO":"F005A","A_FUNC_CAS":"ALAVA CENTRAL","ZLS":"Fotovoltaica","HECTARIAS":12.1065747774}},
{"type":"Feature","geometry":{"type":"Polygon","coordinates":[[[-2.4872,42.86465],[-2.49105,42.8666],[-2.49165,42.86435],[-2.4929,42.8623],[-2.4926,42.85985],[-2.48945,42.8605],[-2.48735,42.86215],[-2.48615,42.8641],[-2.4872,42.86465]]]},"properties":{"CODIGO":"F076A","A_FUNC_CAS":"ALAVA CENTRAL","ZLS":"Fotovoltaica","HECTARIAS":23.4891589305}},
{"type":"Feature","geometry":{"type":"Polygon","coordinates":[[[-2.9832,42.7306],[-2.98505,42.72995],[-2.98115,42.7288],[-2.9735,42.7274],[-2.9721,42.727],[-2.9716,42.72905],[-2.97375,42.7295],[-2.97895,42.7295],[-2.982,42.72915],[-2.9832,42.7306]]]},"properties":{"CODIGO":"F017A","A_FUNC_CAS":"ALAVA CENTRAL","ZLS":"Fotovoltaica","HECTARIAS":15.9412266097}},
{"type":"Feature","geometry":{"type":"MultiPolygon","coordinates":[[[[-2.98505,42.7577],[-2.988,42.75575],[-2.98695,42.75525],[-2.98505,42.7577]]],[[[-2.9893,42.76025],[-2.98815,42.76025],[-2.98525,42.75895],[-2.98485,42.76055],[-2.98595,42.76325],[-2.9878,42.7628],[-2.9878,42.7619],[-2.9893,42.76145],[-2.9893,42.76025]]],[[[-2.97595,42.7631],[-2.9773,42.76355],[-2.98505,42.7632],[-2.9858,42.76305],[-2.9847,42.7603],[-2.98465,42.7591],[-2.98105,42.75985],[-2.9783,42.75875],[-2.97855,42.7602],[-2.97595,42.7631]]],[[[-2.9768,42.76505],[-2.97855,42.7656],[-2.9828,42.76595],[-2.98495,42.7653],[-2.98535,42.7632],[-2.9773,42.76355],[-2.9768,42.76505]]]]},"properties":{"CODIGO":"F029A","A_FUNC_CAS":"ALAVA CENTRAL","ZLS":"Fotovoltaica","HECTARIAS":62.9508425592}},
{"type":"Feature","geometry":{"type":"MultiPolygon","coordinates":[[[[-2.5592,42.87145],[-2.55935,42.8709],[-2.55735,42.87185],[-2.55525,42.873],[-2.5539,42.8743],[-2.55645,42.8746],[-2.5567,42.87425],[-2.55405,42.8742],[-2.55545,42.87305],[-2.55755,42.87355],[-2.5592,42.87145]]],[[[-2.55225,42.87605],[-2.55345,42.87455],[-2.5539,42.87425],[-2.55485,42.8733],[-2.5554,42.87285],[-2.5593,42.8709],[-2.55885,42.8705],[-2.5529,42.87365],[-2.5518,42.87475],[-2.55225,42.87605]]],[[[-2.55325,42.8765],[-2.5543,42.87565],[-2.55705,42.8764],[-2.55715,42.875],[-2.5554,42.87505],[-2.55365,42.87445],[-2.55325,42.8765]]]]},"properties":{"CODIGO":"F081A","A_FUNC_CAS":"ALAVA CENTRAL","ZLS":"Fotovoltaica","HECTARIAS":14.862727769}},
{"type":"Feature","geometry":{"type":"Polygon","coordinates":[[[-2.4253,42.82875],[-2.4259,42.829],[-2.4293,42.82835],[-2.4288,42.8253],[-2.4264,42.8253],[-2.4259,42.8288],[-2.4253,42.82875]]]},"properties":{"CODIGO":"F048A","A_FUNC_CAS":"ALAVA CENTRAL","ZLS":"Fotovoltaica","HECTARIAS":10.759592389}},
{"type":"Feature","geometry":{"type":"MultiPolygon","coordinates":[[[[-2.4012,42.8835],[-2.40215,42.8862],[-2.4056,42.88605],[-2.4051,42.88395],[-2.40275,42.8826],[-2.4012,42.8808],[-2.4012,42.8797],[-2.3991,42.88],[-2.39905,42.88195],[-2.4012,42.8835]]],[[[-2.4097,42.88755],[-2.40605,42.88645],[-2.4072,42.88795],[-2.4097,42.88755]]],[[[-2.40415,42.88935],[-2.40545,42.8893],[-2.40685,42.8895],[-2.40755,42.88915],[-2.40755,42.8886],[-2.40575,42.88615],[-2.40215,42.8862],[-2.4013,42.88825],[-2.4017,42.8894],[-2.40415,42.88935]]]]},"properties":{"CODIGO":"F093A","A_FUNC_CAS":"ALAVA CENTRAL","ZLS":"Fotovoltaica","HECTARIAS":39.4432827873}},
{"type":"Feature","geometry":{"type":"Polygon","coordinates":[[[-2.81815,43.26645],[-2.82095,43.26785],[-2.82225,43.26605],[-2.8203,43.2658],[-2.81925,43.26635],[-2.8181,43.26455],[-2.8166,43.26525],[-2.81815,43.26645]]]},"properties":{"CODIGO":"F143B","A_FUNC_CAS":"BILBAO METROPOLITANO","ZLS":"Fotovoltaica","HECTARIAS":13.55809742}},
{"type":"Feature","geometry":{"type":"MultiPolygon","coordinates":[[[[-2.99615,42.7656],[-2.99435,42.7654],[-2.99265,42.76575],[-2.99145,42.76485],[-2.9893,42.76565],[-2.98895,42.76765],[-2.9938,42.77025],[-2.9973,42.7671],[-2.99615,42.7656]]],[[[-2.99785,42.7673],[-2.99755,42.7669],[-2.99435,42.76985],[-2.9959,42.7698],[-2.99845,42.76855],[-2.99785,42.7673]]]]},"properties":{"CODIGO":"F030A","A_FUNC_CAS":"ALAVA CENTRAL","ZLS":"Fotovoltaica","HECTARIAS":28.2099876736}},
{"type":"Feature","geometry":{"type":"MultiPolygon","coordinates":[[[[-2.4081,42.89725],[-2.40655,42.8987],[-2.4074,42.89925],[-2.40885,42.8979],[-2.4081,42.89725]]],[[[-2.4098,42.89915],[-2.4089,42.89795],[-2.40745,42.89925],[-2.40835,42.90005],[-2.4098,42.89915]]],[[[-2.40655,42.89875],[-2.4053,42.9004],[-2.40625,42.90175],[-2.4083,42.90005],[-2.40655,42.89875]]],[[[-2.4001,42.9033],[-2.40065,42.9053],[-2.39885,42.90575],[-2.3988,42.9069],[-2.4011,42.90725],[-2.4009,42.9058],[-2.4019,42.9052],[-2.40285,42.90355],[-2.4001,42.9033]]]]},"properties":{"CODIGO":"F106A","A_FUNC_CAS":"ALAVA CENTRAL","ZLS":"Fotovoltaica","HECTARIAS":17.6061488426}},
{"type":"Feature","geometry":{"type":"Polygon","coordinates":[[[-2.9808,43.04985],[-2.98245,43.0505],[-2.9825,43.04895],[-2.9808,43.04985]]]},"properties":{"CODIGO":"F122A","A_FUNC_CAS":"AYALA","ZLS":"Fotovoltaica","HECTARIAS":9.59696870816}},
{"type":"Feature","geometry":{"type":"MultiPolygon","coordinates":[[[[-2.50385,42.8255],[-2.5035,42.8273],[-2.50595,42.82815],[-2.50845,42.82825],[-2.50785,42.82675],[-2.5051,42.82635],[-2.50385,42.8255]]],[[[-2.50595,42.8282],[-2.50315,42.8272],[-2.5016,42.82875],[-2.50315,42.8292],[-2.5051,42.82965],[-2.5054,42.82965],[-2.5068,42.82925],[-2.50815,42.8297],[-2.50845,42.82825],[-2.50595,42.8282]]],[[[-2.5048,42.83025],[-2.5044,42.83015],[-2.5009,42.8291],[-2.50155,42.83035],[-2.50415,42.8311],[-2.50445,42.8311],[-2.5048,42.83045],[-2.50485,42.83025],[-2.5048,42.83025]]],[[[-2.5113,42.8313],[-2.5099,42.829],[-2.5085,42.8284],[-2.5079,42.8311],[-2.5089,42.83395],[-2.5095,42.8339],[-2.50955,42.83335],[-2.50975,42.8331],[-2.5105,42.83265],[-2.5113,42.8313]]],[[[-2.5017,42.8312],[-2.50265,42.833],[-2.505,42.8323],[-2.5082,42.83335],[-2.5071,42.8316],[-2.50775,42.83125],[-2.5081,42.8298],[-2.50685,42.8293],[-2.50555,42.82965],[-2.50515,42.8297],[-2.50305,42.8292],[-2.50155,42.82875],[-2.50095,42.8291],[-2.50475,42.8302],[-2.50485,42.83025],[-2.50495,42.8301],[-2.50505,42.83005],[-2.50535,42.8302],[-2.5058,42.83035],[-2.50645,42.8306],[-2.5074,42.8309],[-2.5075,42.83095],[-2.50755,42.831],[-2.50745,42.8313],[-2.5074,42.8313],[-2.5075,42.831],[-2.50745,42.83095],[-2.5067,42.8307],[-2.50605,42.83045],[-2.50555,42.8303],[-2.50505,42.8301],[-2.505,42.83015],[-2.5048,42.83045],[-2.50445,42.8311],[-2.50415,42.83115],[-2.5017,42.8312]]],[[[-2.51335,42.8329],[-2.51215,42.8319],[-2.51065,42.8326],[-2.50965,42.83325],[-2.50955,42.8339],[-2.5111,42.83375],[-2.5121,42.83245],[-2.51335,42.8329]]]]},"properties":{"CODIGO":"F053A","A_FUNC_CAS":"ALAVA CENTRAL","ZLS":"Fotovoltaica","HECTARIAS":52.2373726257}},
{"type":"Feature","geometry":{"type":"MultiPolygon","coordinates":[[[[-2.94605,43.00345],[-2.9491,43.00325],[-2.9488,43.0021],[-2.94615,43.00255],[-2.94605,43.00345]]],[[[-2.95065,43.00275],[-2.953,43.0021],[-2.95275,43.004],[-2.95645,43.00435],[-2.95585,43.0028],[-2.954,43.00145],[-2.9537,43.00055],[-2.95005,43.0008],[-2.95065,43.00275]]]]},"properties":{"CODIGO":"F118A","A_FUNC_CAS":"AYALA","ZLS":"Fotovoltaica","HECTARIAS":19.4686856453}},
{"type":"Feature","geometry":{"type":"Polygon","coordinates":[[[-2.3997,42.66375],[-2.40145,42.66235],[-2.4013,42.6613],[-2.3982,42.6612],[-2.39995,42.6624],[-2.3997,42.66375]]]},"properties":{"CODIGO":"F002A","A_FUNC_CAS":"ALAVA CENTRAL","ZLS":"Fotovoltaica","HECTARIAS":10.6080270325}},
{"type":"Feature","geometry":{"type":"MultiPolygon","coordinates":[[[[-2.52665,42.87935],[-2.5262,42.88035],[-2.5248,42.88095],[-2.52385,42.88215],[-2.5256,42.88255],[-2.5285,42.87935],[-2.52665,42.87935]]],[[[-2.51285,42.8825],[-2.51355,42.88155],[-2.508,42.88115],[-2.51285,42.8825]]],[[[-2.52085,42.88305],[-2.5191,42.8813],[-2.51695,42.8818],[-2.5169,42.8839],[-2.5203,42.884],[-2.52045,42.88475],[-2.52425,42.88495],[-2.52535,42.8831],[-2.5234,42.88265],[-2.52255,42.8835],[-2.52085,42.88305]]]]},"properties":{"CODIGO":"F089A","A_FUNC_CAS":"ALAVA CENTRAL","ZLS":"Fotovoltaica","HECTARIAS":29.4822931966}},
{"type":"Feature","geometry":{"type":"Polygon","coordinates":[[[-2.1239,43.11605],[-2.12665,43.11585],[-2.1285,43.1163],[-2.12895,43.1151],[-2.1257,43.11495],[-2.1239,43.11605]]]},"properties":{"CODIGO":"F139G","A_FUNC_CAS":"TOLOSALDEA","ZLS":"Fotovoltaica","HECTARIAS":5.81855945353}},
{"type":"Feature","geometry":{"type":"Polygon","coordinates":[[[-2.96135,42.7231],[-2.95895,42.7209],[-2.9554,42.72075],[-2.9528,42.7201],[-2.95135,42.718],[-2.9485,42.71775],[-2.94665,42.71725],[-2.9445,42.7173],[-2.9477,42.7194],[-2.95115,42.72035],[-2.9507,42.7224],[-2.9556,42.722],[-2.9594,42.7225],[-2.96135,42.7231]]]},"properties":{"CODIGO":"F014A","A_FUNC_CAS":"ALAVA CENTRAL","ZLS":"Fotovoltaica","HECTARIAS":29.0808350852}},
{"type":"Feature","geometry":{"type":"MultiPolygon","coordinates":[[[[-2.4432,42.8677],[-2.44275,42.86625],[-2.4342,42.86465],[-2.4295,42.86345],[-2.42945,42.86435],[-2.43315,42.8651],[-2.4432,42.8677]]],[[[-2.4561,42.86875],[-2.46025,42.86935],[-2.4592,42.868],[-2.45705,42.86825],[-2.4555,42.8673],[-2.454,42.8673],[-2.45155,42.8664],[-2.4491,42.8664],[-2.4482,42.86595],[-2.44515,42.8659],[-2.44515,42.86725],[-2.45,42.86775],[-2.45275,42.86765],[-2.4561,42.86875]]]]},"properties":{"CODIGO":"F077A","A_FUNC_CAS":"ALAVA CENTRAL","ZLS":"Fotovoltaica","HECTARIAS":31.9746180279}},
{"type":"Feature","geometry":{"type":"Polygon","coordinates":[[[-2.98225,42.758],[-2.9832,42.75785],[-2.9844,42.7551],[-2.98085,42.7559],[-2.98015,42.7565],[-2.9783,42.7558],[-2.9795,42.75365],[-2.9789,42.7527],[-2.97725,42.75425],[-2.9769,42.756],[-2.97955,42.75695],[-2.98015,42.75785],[-2.98225,42.758]]]},"properties":{"CODIGO":"F026A","A_FUNC_CAS":"ALAVA CENTRAL","ZLS":"Fotovoltaica","HECTARIAS":13.7937423286}},
{"type":"Feature","geometry":{"type":"Polygon","coordinates":[[[-2.67935,43.08455],[-2.68055,43.0861],[-2.6806,43.08225],[-2.6818,43.08135],[-2.68185,43.07935],[-2.6847,43.0778],[-2.6831,43.07435],[-2.6825,43.07615],[-2.683,43.0777],[-2.68045,43.07985],[-2.67965,43.0818],[-2.6803,43.08225],[-2.67935,43.08455]]]},"properties":{"CODIGO":"F132B","A_FUNC_CAS":"ARRATIA","ZLS":"Fotovoltaica","HECTARIAS":12.9714747657}},
{"type":"Feature","geometry":{"type":"Polygon","coordinates":[[[-2.8414,43.2892],[-2.8416,43.2906],[-2.84405,43.2905],[-2.8444,43.2895],[-2.84745,43.2881],[-2.84915,43.28675],[-2.84895,43.28495],[-2.84615,43.28645],[-2.8443,43.287],[-2.8434,43.2889],[-2.8414,43.2892]]]},"properties":{"CODIGO":"F144B","A_FUNC_CAS":"BILBAO METROPOLITANO","ZLS":"Fotovoltaica","HECTARIAS":16.7010077524}},
{"type":"Feature","geometry":{"type":"Polygon","coordinates":[[[-2.535,42.87895],[-2.53225,42.8789],[-2.53325,42.88135],[-2.5362,42.88095],[-2.5369,42.87945],[-2.5397,42.879],[-2.5435,42.87805],[-2.54625,42.87825],[-2.54635,42.8776],[-2.5433,42.8776],[-2.53315,42.87795],[-2.535,42.87895]]]},"properties":{"CODIGO":"F086A","A_FUNC_CAS":"ALAVA CENTRAL","ZLS":"Fotovoltaica","HECTARIAS":16.1614611237}},
{"type":"Feature","geometry":{"type":"Polygon","coordinates":[[[-2.6307,42.89775],[-2.6333,42.89855],[-2.6355,42.89685],[-2.63525,42.8961],[-2.63275,42.8958],[-2.62875,42.89635],[-2.62855,42.89775],[-2.6307,42.89775]]]},"properties":{"CODIGO":"F098A","A_FUNC_CAS":"ALAVA CENTRAL","ZLS":"Fotovoltaica","HECTARIAS":13.8644237876}},
{"type":"Feature","geometry":{"type":"MultiPolygon","coordinates":[[[[-2.4021,42.8913],[-2.40265,42.89225],[-2.40205,42.89325],[-2.4094,42.89055],[-2.40785,42.8896],[-2.4077,42.88925],[-2.40685,42.8895],[-2.40545,42.8893],[-2.4023,42.88945],[-2.4017,42.8894],[-2.4016,42.89005],[-2.39915,42.8906],[-2.3992,42.8918],[-2.4021,42.8913]]],[[[-2.4017,42.89345],[-2.39935,42.8948],[-2.39955,42.89765],[-2.4009,42.89645],[-2.4028,42.89625],[-2.4054,42.894],[-2.40965,42.89365],[-2.4124,42.8923],[-2.41065,42.89165],[-2.4094,42.8906],[-2.4017,42.89345]]],[[[-2.3945,42.8955],[-2.3914,42.89575],[-2.39105,42.8969],[-2.3934,42.89755],[-2.39505,42.89595],[-2.3965,42.8964],[-2.39745,42.89755],[-2.39955,42.8977],[-2.39935,42.8948],[-2.39805,42.89535],[-2.3945,42.8955]]],[[[-2.39155,42.9006],[-2.39175,42.9031],[-2.3934,42.9026],[-2.3943,42.8999],[-2.39215,42.89985],[-2.39155,42.9006]]]]},"properties":{"CODIGO":"F103A","A_FUNC_CAS":"ALAVA CENTRAL","ZLS":"Fotovoltaica","HECTARIAS":68.2038238924}},
{"type":"Feature","geometry":{"type":"Polygon","coordinates":[[[-2.45665,42.77185],[-2.4588,42.7721],[-2.45925,42.77075],[-2.4573,42.76995],[-2.45515,42.7714],[-2.4529,42.77065],[-2.4525,42.76935],[-2.4493,42.7671],[-2.44865,42.76815],[-2.44965,42.76945],[-2.44845,42.76985],[-2.4497,42.77115],[-2.45665,42.77185]]]},"properties":{"CODIGO":"F031A","A_FUNC_CAS":"ALAVA CENTRAL","ZLS":"Fotovoltaica","HECTARIAS":17.2756257801}},
{"type":"Feature","geometry":{"type":"MultiPolygon","coordinates":[[[[-2.55845,42.8805],[-2.56085,42.8816],[-2.56165,42.8806],[-2.56105,42.87975],[-2.5593,42.8791],[-2.55845,42.8805]]],[[[-2.56045,42.88175],[-2.56225,42.8824],[-2.56405,42.8824],[-2.56345,42.8806],[-2.56205,42.8804],[-2.5609,42.88165],[-2.56045,42.88175]]],[[[-2.5674,42.88535],[-2.56915,42.88625],[-2.57275,42.88585],[-2.5714,42.88465],[-2.5694,42.8844],[-2.56715,42.8835],[-2.5654,42.8822],[-2.56495,42.88375],[-2.5674,42.88535]]],[[[-2.5554,42.879],[-2.55845,42.88045],[-2.5593,42.87905],[-2.557,42.8781],[-2.5554,42.879]]]]},"properties":{"CODIGO":"F090A","A_FUNC_CAS":"ALAVA CENTRAL","ZLS":"Fotovoltaica","HECTARIAS":26.6601120753}},
{"type":"Feature","geometry":{"type":"Polygon","coordinates":[[[-2.94545,42.9862],[-2.946,42.9864],[-2.94895,42.9855],[-2.94755,42.9839],[-2.94445,42.984],[-2.94305,42.9835],[-2.9411,42.9847],[-2.94545,42.9862]]]},"properties":{"CODIGO":"F115A","A_FUNC_CAS":"ALAVA CENTRAL","ZLS":"Fotovoltaica","HECTARIAS":11.502638387}},
{"type":"Feature","geometry":{"type":"MultiPolygon","coordinates":[[[[-2.7697,42.82525],[-2.76795,42.8256],[-2.7687,42.8268],[-2.76815,42.82845],[-2.7694,42.82845],[-2.77015,42.8258],[-2.7697,42.82525]]],[[[-2.7652,42.82645],[-2.7662,42.82775],[-2.7661,42.83015],[-2.76885,42.8299],[-2.7681,42.8284],[-2.76865,42.8268],[-2.7679,42.8256],[-2.7652,42.82645]]],[[[-2.76325,42.8283],[-2.76325,42.8299],[-2.76575,42.8282],[-2.76375,42.8273],[-2.76325,42.8283]]]]},"properties":{"CODIGO":"F050A","A_FUNC_CAS":"ALAVA CENTRAL","ZLS":"Fotovoltaica","HECTARIAS":22.4633227427}},
{"type":"Feature","geometry":{"type":"Polygon","coordinates":[[[-2.4284,42.6653],[-2.43085,42.66625],[-2.432,42.6659],[-2.43065,42.66255],[-2.42985,42.6641],[-2.4284,42.6653]]]},"properties":{"CODIGO":"F003A","A_FUNC_CAS":"ALAVA CENTRAL","ZLS":"Fotovoltaica","HECTARIAS":12.9133381453}},
{"type":"Feature","geometry":{"type":"Polygon","coordinates":[[[-3.03345,43.07075],[-3.0347,43.07145],[-3.0355,43.07095],[-3.03305,43.0693],[-3.03345,43.07075]]]},"properties":{"CODIGO":"F127A","A_FUNC_CAS":"AYALA","ZLS":"Fotovoltaica","HECTARIAS":5.32792848334}},
{"type":"Feature","geometry":{"type":"MultiPolygon","coordinates":[[[[-2.57715,42.85075],[-2.5768,42.8523],[-2.5774,42.85315],[-2.58245,42.8535],[-2.5829,42.8515],[-2.5822,42.84945],[-2.5809,42.84935],[-2.57715,42.85075]]],[[[-2.57865,42.85475],[-2.58345,42.8559],[-2.58245,42.8535],[-2.57755,42.8532],[-2.57865,42.85475]]]]},"properties":{"CODIGO":"F062A","A_FUNC_CAS":"ALAVA CENTRAL","ZLS":"Fotovoltaica","HECTARIAS":24.6059277468}},
{"type":"Feature","geometry":{"type":"MultiPolygon","coordinates":[[[[-2.9368,42.72495],[-2.93925,42.72495],[-2.9426,42.72595],[-2.9429,42.72505],[-2.9377,42.72475],[-2.9368,42.72495]]],[[[-2.9562,42.72745],[-2.95725,42.72765],[-2.9587,42.729],[-2.9601,42.72885],[-2.9597,42.7276],[-2.95755,42.7272],[-2.95445,42.7255],[-2.9484,42.72385],[-2.9438,42.72385],[-2.9436,42.7244],[-2.9481,42.72475],[-2.94685,42.72565],[-2.9438,42.72495],[-2.9431,42.726],[-2.9478,42.7261],[-2.949,42.72675],[-2.9528,42.72765],[-2.9562,42.72745]]]]},"properties":{"CODIGO":"F015A","A_FUNC_CAS":"ALAVA CENTRAL","ZLS":"Fotovoltaica","HECTARIAS":34.9236423737}},
{"type":"Feature","geometry":{"type":"MultiPolygon","coordinates":[[[[-2.9558,42.9985],[-2.95645,42.99915],[-2.95845,42.9995],[-2.9592,42.9997],[-2.95925,42.9997],[-2.96,43.0003],[-2.96075,43.0008],[-2.96105,43.00105],[-2.96245,43.00215],[-2.9626,43.00055],[-2.96475,43.0003],[-2.96325,42.99845],[-2.9616,42.9976],[-2.9595,42.9976],[-2.958,42.99695],[-2.9558,42.9985]]],[[[-2.9562,42.9993],[-2.9546,43.0003],[-2.95645,43.00145],[-2.95735,43.003],[-2.96195,43.003],[-2.96235,43.00215],[-2.9611,43.00115],[-2.96075,43.0008],[-2.96,43.00035],[-2.9593,42.9998],[-2.95915,42.9997],[-2.95805,42.9995],[-2.9571,42.9993],[-2.9562,42.9993]]]]},"properties":{"CODIGO":"F117AB","A_FUNC_CAS":"AYALA","ZLS":"Fotovoltaica","HECTARIAS":35.7872405757}},
{"type":"Feature","geometry":{"type":"Polygon","coordinates":[[[-2.44125,42.86365],[-2.43845,42.86185],[-2.4357,42.8616],[-2.43325,42.8607],[-2.4314,42.8607],[-2.42925,42.86],[-2.42915,42.86175],[-2.4347,42.8623],[-2.44125,42.86365]]]},"properties":{"CODIGO":"F074A","A_FUNC_CAS":"ALAVA CENTRAL","ZLS":"Fotovoltaica","HECTARIAS":16.3636867571}},
{"type":"Feature","geometry":{"type":"Polygon","coordinates":[[[-2.95875,42.7607],[-2.96015,42.76125],[-2.9621,42.76055],[-2.9621,42.75795],[-2.96055,42.7567],[-2.95855,42.7571],[-2.95875,42.7607]]]},"properties":{"CODIGO":"F027A","A_FUNC_CAS":"ALAVA CENTRAL","ZLS":"Fotovoltaica","HECTARIAS":11.1438389719}},
{"type":"Feature","geometry":{"type":"Polygon","coordinates":[[[-2.4728,42.8819],[-2.4788,42.884],[-2.4782,42.88165],[-2.47225,42.8803],[-2.4693,42.8789],[-2.4644,42.8773],[-2.4634,42.8778],[-2.466,42.87935],[-2.4728,42.8819]]]},"properties":{"CODIGO":"F087A","A_FUNC_CAS":"ALAVA CENTRAL","ZLS":"Fotovoltaica","HECTARIAS":20.7111976266}},
{"type":"Feature","geometry":{"type":"MultiPolygon","coordinates":[[[[-3.02905,42.80015],[-3.0302,42.801],[-3.0323,42.79945],[-3.03355,42.7971],[-3.0318,42.7967],[-3.02905,42.80015]]],[[[-3.03115,42.80035],[-3.03375,42.80145],[-3.0337,42.8],[-3.03115,42.80035]]]]},"properties":{"CODIGO":"F039A","A_FUNC_CAS":"ALAVA CENTRAL","ZLS":"Fotovoltaica","HECTARIAS":19.0451855458}},
{"type":"Feature","geometry":{"type":"MultiPolygon","coordinates":[[[[-2.5073,42.81905],[-2.50805,42.822],[-2.5107,42.82085],[-2.50825,42.8203],[-2.5073,42.81905]]],[[[-2.5098,42.82355],[-2.5106,42.82095],[-2.5085,42.82195],[-2.5098,42.82355]]]]},"properties":{"CODIGO":"F046A","A_FUNC_CAS":"ALAVA CENTRAL","ZLS":"Fotovoltaica","HECTARIAS":10.9406858973}},
{"type":"Feature","geometry":{"type":"MultiPolygon","coordinates":[[[[-2.5839,43.1507],[-2.58475,43.1512],[-2.58575,43.1477],[-2.5815,43.1484],[-2.5839,43.1507]]],[[[-2.57665,43.1464],[-2.5778,43.14655],[-2.58,43.1486],[-2.58065,43.14725],[-2.57965,43.1468],[-2.57665,43.1464]]]]},"properties":{"CODIGO":"F141B","A_FUNC_CAS":"DURANGALDEA","ZLS":"Fotovoltaica","HECTARIAS":21.8161234739}},
{"type":"Feature","geometry":{"type":"Polygon","coordinates":[[[-2.4531,42.87665],[-2.4548,42.8778],[-2.46805,42.88065],[-2.4749,42.883],[-2.47655,42.88415],[-2.47885,42.8841],[-2.4709,42.88125],[-2.4636,42.87845],[-2.4531,42.87665]]]},"properties":{"CODIGO":"F091A","A_FUNC_CAS":"ALAVA CENTRAL","ZLS":"Fotovoltaica","HECTARIAS":17.8807740102}},
{"type":"Feature","geometry":{"type":"MultiPolygon","coordinates":[[[[-2.3785,42.7119],[-2.3806,42.7123],[-2.3844,42.7121],[-2.3874,42.71245],[-2.38745,42.7115],[-2.3827,42.7116],[-2.38255,42.7102],[-2.3818,42.71095],[-2.3821,42.7116],[-2.38055,42.7116],[-2.3788,42.7107],[-2.3785,42.7119]]],[[[-2.39005,42.71095],[-2.38455,42.71095],[-2.3852,42.7115],[-2.38745,42.7115],[-2.3891,42.71155],[-2.39005,42.71095]]],[[[-2.37455,42.7102],[-2.3766,42.71025],[-2.37685,42.7092],[-2.3751,42.7091],[-2.37455,42.7102]]]]},"properties":{"CODIGO":"F012A","A_FUNC_CAS":"ALAVA CENTRAL","ZLS":"Fotovoltaica","HECTARIAS":22.174463215}},
{"type":"Feature","geometry":{"type":"MultiPolygon","coordinates":[[[[-3.02545,43.08705],[-3.0253,43.0898],[-3.0267,43.0891],[-3.02705,43.0872],[-3.02545,43.08705]]],[[[-3.02855,43.09195],[-3.02985,43.0916],[-3.0258,43.08985],[-3.0249,43.0908],[-3.0261,43.0915],[-3.02855,43.09195]]]]},"properties":{"CODIGO":"F137A","A_FUNC_CAS":"AYALA","ZLS":"Fotovoltaica","HECTARIAS":30.8881765443}},
{"type":"Feature","geometry":{"type":"MultiPolygon","coordinates":[[[[-2.36095,42.6789],[-2.3605,42.68225],[-2.3627,42.682],[-2.36255,42.6806],[-2.36095,42.6789]]],[[[-2.36255,42.6802],[-2.36275,42.682],[-2.3644,42.68185],[-2.36255,42.6802]]],[[[-2.3758,42.68305],[-2.375,42.68405],[-2.37785,42.684],[-2.3767,42.6819],[-2.3758,42.68305]]],[[[-2.36065,42.6825],[-2.3609,42.6858],[-2.3633,42.68535],[-2.365,42.68415],[-2.36585,42.6859],[-2.3689,42.687],[-2.37005,42.6867],[-2.37035,42.6852],[-2.36835,42.6836],[-2.3644,42.68185],[-2.36065,42.6825]]],[[[-2.37205,42.68865],[-2.3736,42.68665],[-2.377,42.68645],[-2.37615,42.6852],[-2.3689,42.68705],[-2.37205,42.68865]]],[[[-2.3666,42.6874],[-2.36405,42.68635],[-2.3634,42.68685],[-2.3657,42.6888],[-2.36765,42.68925],[-2.3666,42.6874]]],[[[-2.3581,42.6774],[-2.3565,42.67855],[-2.35985,42.6787],[-2.3581,42.6774]]],[[[-2.35555,42.6813],[-2.3574,42.68255],[-2.3605,42.68225],[-2.3607,42.6791],[-2.35985,42.6787],[-2.35645,42.67855],[-2.3538,42.68035],[-2.35555,42.6813]]],[[[-2.35735,42.6826],[-2.36025,42.68505],[-2.3605,42.68225],[-2.35735,42.6826]]],[[[-2.3634,42.6901],[-2.3609,42.68585],[-2.3602,42.68505],[-2.35735,42.6849],[-2.35455,42.683],[-2.3538,42.68325],[-2.35375,42.6862],[-2.3524,42.6868],[-2.35335,42.68825],[-2.3573,42.68965],[-2.3588,42.68965],[-2.3594,42.69055],[-2.3634,42.6901]]]]},"properties":{"CODIGO":"F008A","A_FUNC_CAS":"ALAVA CENTRAL","ZLS":"Fotovoltaica","HECTARIAS":130.983923516}},
{"type":"Feature","geometry":{"type":"Polygon","coordinates":[[[-2.4412,42.85485],[-2.4482,42.8561],[-2.4486,42.856],[-2.44905,42.85475],[-2.4453,42.85405],[-2.4402,42.852],[-2.4388,42.85205],[-2.439,42.85445],[-2.4412,42.85485]]]},"properties":{"CODIGO":"F063A","A_FUNC_CAS":"ALAVA CENTRAL","ZLS":"Fotovoltaica","HECTARIAS":18.203278453}},
{"type":"Feature","geometry":{"type":"Polygon","coordinates":[[[-2.60405,42.87795],[-2.6027,42.88025],[-2.6045,42.88],[-2.6044,42.879],[-2.6103,42.8789],[-2.61,42.87735],[-2.60405,42.87795]]]},"properties":{"CODIGO":"F084A","A_FUNC_CAS":"ALAVA CENTRAL","ZLS":"Fotovoltaica","HECTARIAS":11.8167905424}},
{"type":"Feature","geometry":{"type":"Polygon","coordinates":[[[-2.87955,43.43],[-2.87885,43.43005],[-2.87765,43.4322],[-2.879,43.4336],[-2.8801,43.4336],[-2.8811,43.43225],[-2.8811,43.43045],[-2.87955,43.43]]]},"properties":{"CODIGO":"F149B","A_FUNC_CAS":"BILBAO METROPOLITANO","ZLS":"Fotovoltaica","HECTARIAS":9.7556083351}},
{"type":"Feature","geometry":{"type":"MultiPolygon","coordinates":[[[[-3.0321,42.79015],[-3.0309,42.78825],[-3.0325,42.78805],[-3.0331,42.78715],[-3.02995,42.78575],[-3.02995,42.7873],[-3.0321,42.79015]]],[[[-3.0312,42.79185],[-3.0327,42.79115],[-3.0315,42.7898],[-3.02915,42.79005],[-3.02915,42.79205],[-3.0312,42.79185]]],[[[-3.02495,42.79205],[-3.02525,42.79175],[-3.0291,42.792],[-3.0281,42.79095],[-3.026,42.7914],[-3.02505,42.7916],[-3.02505,42.79185],[-3.02385,42.79185],[-3.02385,42.79225],[-3.02495,42.79205]]]]},"properties":{"CODIGO":"F036A","A_FUNC_CAS":"ALAVA CENTRAL","ZLS":"Fotovoltaica","HECTARIAS":26.3734604495}},
{"type":"Feature","geometry":{"type":"MultiPolygon","coordinates":[[[[-2.40505,42.863],[-2.4065,42.8626],[-2.4056,42.8612],[-2.40415,42.86235],[-2.40505,42.863]]],[[[-2.4059,42.86165],[-2.4086,42.86575],[-2.40975,42.86545],[-2.40825,42.8637],[-2.4077,42.86175],[-2.4059,42.86165]]],[[[-2.4037,42.8629],[-2.4055,42.8662],[-2.4086,42.86575],[-2.4066,42.86275],[-2.40475,42.86345],[-2.4037,42.8629]]]]},"properties":{"CODIGO":"F075A","A_FUNC_CAS":"ALAVA CENTRAL","ZLS":"Fotovoltaica","HECTARIAS":16.258770735}},
{"type":"Feature","geometry":{"type":"Polygon","coordinates":[[[-2.2356,43.2422],[-2.2354,43.24155],[-2.23265,43.24155],[-2.23395,43.24245],[-2.2356,43.2422]]]},"properties":{"CODIGO":"F142G","A_FUNC_CAS":"UROLA KOSTA","ZLS":"Fotovoltaica","HECTARIAS":5.2888578512}},
{"type":"Feature","geometry":{"type":"Polygon","coordinates":[[[-2.68735,43.07755],[-2.6884,43.0772],[-2.68555,43.07505],[-2.68265,43.0734],[-2.6863,43.07735],[-2.68735,43.07755]]]},"properties":{"CODIGO":"F130B","A_FUNC_CAS":"ARRATIA","ZLS":"Fotovoltaica","HECTARIAS":6.79270052778}},
{"type":"Feature","geometry":{"type":"MultiPolygon","coordinates":[[[[-2.45755,42.8264],[-2.46055,42.82655],[-2.46345,42.8269],[-2.4673,42.82665],[-2.46055,42.8252],[-2.45755,42.8264]]],[[[-2.4635,42.82835],[-2.4672,42.8289],[-2.4695,42.8273],[-2.4634,42.82695],[-2.45865,42.82645],[-2.45925,42.8275],[-2.46135,42.8282],[-2.4635,42.82835]]]]},"properties":{"CODIGO":"F047A","A_FUNC_CAS":"ALAVA CENTRAL","ZLS":"Fotovoltaica","HECTARIAS":21.2278217877}},
{"type":"Feature","geometry":{"type":"Polygon","coordinates":[[[-2.50205,42.91005],[-2.5029,42.9113],[-2.50555,42.909],[-2.5084,42.90765],[-2.50895,42.9065],[-2.50645,42.90675],[-2.50205,42.91005]]]},"properties":{"CODIGO":"F109A","A_FUNC_CAS":"ALAVA CENTRAL","ZLS":"Fotovoltaica","HECTARIAS":10.1173658667}},
{"type":"Feature","geometry":{"type":"Polygon","coordinates":[[[-2.58065,42.89825],[-2.58365,42.8994],[-2.5855,42.8967],[-2.5845,42.8967],[-2.58265,42.8951],[-2.5805,42.8951],[-2.5802,42.8944],[-2.57825,42.89375],[-2.57815,42.8957],[-2.5765,42.8962],[-2.58065,42.89825]]]},"properties":{"CODIGO":"F096A","A_FUNC_CAS":"ALAVA CENTRAL","ZLS":"Fotovoltaica","HECTARIAS":27.1235509553}},
{"type":"Feature","geometry":{"type":"MultiPolygon","coordinates":[[[[-2.6095,42.8869],[-2.60785,42.8896],[-2.61225,42.891],[-2.6127,42.8897],[-2.61055,42.88955],[-2.60965,42.8889],[-2.61085,42.8874],[-2.6095,42.8869]]],[[[-2.61665,42.8916],[-2.61965,42.8919],[-2.62025,42.8929],[-2.6222,42.8905],[-2.62425,42.8896],[-2.62515,42.8878],[-2.62315,42.8876],[-2.61675,42.88935],[-2.61575,42.89025],[-2.61665,42.8916]]],[[[-2.61785,42.8959],[-2.6167,42.89545],[-2.6131,42.8952],[-2.61125,42.8937],[-2.61005,42.8954],[-2.6147,42.89745],[-2.61825,42.89725],[-2.6206,42.8961],[-2.61785,42.8959]]],[[[-2.6102,42.8943],[-2.61125,42.8937],[-2.61085,42.89215],[-2.6122,42.891],[-2.60795,42.8897],[-2.60855,42.8934],[-2.6102,42.8943]]],[[[-2.61065,42.89715],[-2.6069,42.89725],[-2.60615,42.8982],[-2.6079,42.8991],[-2.61065,42.89715]]],[[[-2.61265,42.9012],[-2.6145,42.89835],[-2.61465,42.89745],[-2.61185,42.8962],[-2.61045,42.8975],[-2.6079,42.8991],[-2.6052,42.8978],[-2.60305,42.89765],[-2.6004,42.89605],[-2.60045,42.89825],[-2.6018,42.89885],[-2.60205,42.90005],[-2.60475,42.90155],[-2.6049,42.90225],[-2.61025,42.904],[-2.61265,42.9012]]]]},"properties":{"CODIGO":"F101A","A_FUNC_CAS":"ALAVA CENTRAL","ZLS":"Fotovoltaica","HECTARIAS":114.854160901}},
{"type":"Feature","geometry":{"type":"MultiPolygon","coordinates":[[[[-2.63565,42.9198],[-2.63465,42.92065],[-2.63425,42.92285],[-2.6362,42.92415],[-2.6365,42.9229],[-2.63635,42.9198],[-2.63565,42.9198]]],[[[-2.6305,42.9236],[-2.6289,42.92275],[-2.62795,42.92615],[-2.63085,42.9252],[-2.63085,42.92605],[-2.63455,42.92465],[-2.6336,42.9232],[-2.6338,42.92145],[-2.63055,42.92275],[-2.6305,42.9236]]],[[[-2.62195,42.92585],[-2.62245,42.926],[-2.62545,42.9225],[-2.62475,42.9218],[-2.62205,42.92155],[-2.62035,42.92365],[-2.62055,42.92455],[-2.623,42.924],[-2.62195,42.92585]]],[[[-2.6285,42.9241],[-2.6286,42.9235],[-2.6258,42.92225],[-2.624,42.9242],[-2.6256,42.92645],[-2.62745,42.92665],[-2.6285,42.9241]]]]},"properties":{"CODIGO":"F113A","A_FUNC_CAS":"ALAVA CENTRAL","ZLS":"Fotovoltaica","HECTARIAS":46.6708550447}},
{"type":"Feature","geometry":{"type":"Polygon","coordinates":[[[-2.63775,42.8194],[-2.63745,42.82085],[-2.64125,42.8209],[-2.64315,42.8202],[-2.64285,42.8184],[-2.6439,42.8159],[-2.64215,42.81565],[-2.63965,42.81835],[-2.6396,42.8198],[-2.63775,42.8194]]]},"properties":{"CODIGO":"F044A","A_FUNC_CAS":"ALAVA CENTRAL","ZLS":"Fotovoltaica","HECTARIAS":16.094154197}},
{"type":"Feature","geometry":{"type":"Polygon","coordinates":[[[-2.6829,43.06275],[-2.68265,43.0635],[-2.6804,43.06425],[-2.6818,43.06615],[-2.68325,43.06405],[-2.6829,43.06275]]]},"properties":{"CODIGO":"F125B","A_FUNC_CAS":"ARRATIA","ZLS":"Fotovoltaica","HECTARIAS":6.52793401067}},
{"type":"Feature","geometry":{"type":"MultiPolygon","coordinates":[[[[-2.35235,42.68935],[-2.3578,42.6935],[-2.35725,42.69165],[-2.35635,42.69055],[-2.35345,42.68935],[-2.35235,42.68935]]],[[[-2.35275,42.69425],[-2.3546,42.69535],[-2.3582,42.6939],[-2.3548,42.6921],[-2.3554,42.6941],[-2.35275,42.69425]]]]},"properties":{"CODIGO":"F009A","A_FUNC_CAS":"ALAVA CENTRAL","ZLS":"Fotovoltaica","HECTARIAS":21.8946479318}},
{"type":"Feature","geometry":{"type":"Polygon","coordinates":[[[-2.58035,42.51575],[-2.58215,42.51565],[-2.58125,42.51385],[-2.58025,42.5136],[-2.57945,42.5153],[-2.58035,42.51575]]]},"properties":{"CODIGO":"F001A","A_FUNC_CAS":"RIOJA ALAVESA","ZLS":"Fotovoltaica","HECTARIAS":5.49928213351}},
{"type":"Feature","geometry":{"type":"Polygon","coordinates":[[[-2.9466,42.72055],[-2.94735,42.71935],[-2.94395,42.71705],[-2.94175,42.7164],[-2.9399,42.717],[-2.9374,42.7161],[-2.9341,42.716],[-2.9327,42.71715],[-2.9337,42.7196],[-2.93855,42.71985],[-2.94045,42.7207],[-2.9466,42.72055]]]},"properties":{"CODIGO":"F013A","A_FUNC_CAS":"ALAVA CENTRAL","ZLS":"Fotovoltaica","HECTARIAS":41.8449131497}},
{"type":"Feature","geometry":{"type":"Polygon","coordinates":[[[-3.05995,43.0975],[-3.0628,43.09655],[-3.0633,43.0953],[-3.0607,43.0944],[-3.0593,43.09655],[-3.05995,43.0975]]]},"properties":{"CODIGO":"F138A","A_FUNC_CAS":"AYALA","ZLS":"Fotovoltaica","HECTARIAS":5.92847264704}},
{"type":"Feature","geometry":{"type":"Polygon","coordinates":[[[-2.42035,42.86095],[-2.4152,42.859],[-2.41895,42.85925],[-2.41855,42.85815],[-2.41275,42.85675],[-2.41225,42.85785],[-2.4125,42.85795],[-2.4129,42.8585],[-2.41315,42.85915],[-2.41595,42.8598],[-2.41755,42.8604],[-2.42035,42.86095]]]},"properties":{"CODIGO":"F072A","A_FUNC_CAS":"ALAVA CENTRAL","ZLS":"Fotovoltaica","HECTARIAS":21.1904748867}},
{"type":"Feature","geometry":{"type":"MultiPolygon","coordinates":[[[[-3.05285,42.7934],[-3.05105,42.79275],[-3.05105,42.7943],[-3.05285,42.7934]]],[[[-3.0501,42.7937],[-3.04985,42.79545],[-3.05155,42.79475],[-3.0501,42.7937]]],[[[-3.0529,42.7961],[-3.0538,42.79655],[-3.05865,42.79655],[-3.0542,42.7944],[-3.05225,42.7942],[-3.0529,42.7961]]]]},"properties":{"CODIGO":"F037A","A_FUNC_CAS":"ALAVA CENTRAL","ZLS":"Fotovoltaica","HECTARIAS":23.8411851356}},
{"type":"Feature","geometry":{"type":"MultiPolygon","coordinates":[[[[-2.9734,42.70875],[-2.96895,42.7082],[-2.96945,42.70975],[-2.97275,42.71015],[-2.9734,42.70875]]],[[[-2.95885,42.71125],[-2.9611,42.7103],[-2.9651,42.70925],[-2.9679,42.7092],[-2.9689,42.7082],[-2.9634,42.70815],[-2.95845,42.7096],[-2.95605,42.7105],[-2.95885,42.71125]]]]},"properties":{"CODIGO":"F010A","A_FUNC_CAS":"ALAVA CENTRAL","ZLS":"Fotovoltaica","HECTARIAS":20.8010556139}},
{"type":"Feature","geometry":{"type":"Polygon","coordinates":[[[-2.97105,42.7388],[-2.9722,42.7396],[-2.9722,42.74165],[-2.9716,42.7424],[-2.9715,42.74435],[-2.97365,42.74435],[-2.9733,42.74325],[-2.97505,42.7426],[-2.97555,42.7404],[-2.9738,42.7386],[-2.97655,42.73825],[-2.97835,42.7375],[-2.98075,42.73735],[-2.98085,42.73555],[-2.97925,42.73625],[-2.9783,42.73735],[-2.9771,42.7368],[-2.9719,42.73675],[-2.97105,42.7388]]]},"properties":{"CODIGO":"F022A","A_FUNC_CAS":"ALAVA CENTRAL","ZLS":"Fotovoltaica","HECTARIAS":33.1621611124}},
{"type":"Feature","geometry":{"type":"Polygon","coordinates":[[[-2.6908,42.8959],[-2.6914,42.8942],[-2.6887,42.89565],[-2.6895,42.897],[-2.6908,42.8959]]]},"properties":{"CODIGO":"F097A","A_FUNC_CAS":"ALAVA CENTRAL","ZLS":"Fotovoltaica","HECTARIAS":13.5417917085}},
{"type":"Feature","geometry":{"type":"Polygon","coordinates":[[[-2.6904,42.90175],[-2.68855,42.90355],[-2.691,42.90345],[-2.69215,42.90265],[-2.69225,42.9013],[-2.69375,42.90085],[-2.693,42.8997],[-2.6869,42.90195],[-2.68665,42.9033],[-2.6904,42.90175]]]},"properties":{"CODIGO":"F102A","A_FUNC_CAS":"ALAVA CENTRAL","ZLS":"Fotovoltaica","HECTARIAS":12.3844887165}},
{"type":"Feature","geometry":{"type":"Polygon","coordinates":[[[-2.49165,42.8376],[-2.49055,42.8381],[-2.4924,42.83955],[-2.49475,42.8406],[-2.49595,42.84015],[-2.49745,42.8425],[-2.4991,42.843],[-2.4994,42.8419],[-2.49865,42.84045],[-2.49465,42.83895],[-2.49165,42.8376]]]},"properties":{"CODIGO":"F056A","A_FUNC_CAS":"ALAVA CENTRAL","ZLS":"Fotovoltaica","HECTARIAS":12.0350000361}},
{"type":"Feature","geometry":{"type":"MultiPolygon","coordinates":[[[[-3.0129,43.08655],[-3.01365,43.08765],[-3.0149,43.0879],[-3.0158,43.08675],[-3.0145,43.08435],[-3.01175,43.08555],[-3.0129,43.08655]]],[[[-3.014,43.08175],[-3.01215,43.0823],[-3.01335,43.08395],[-3.0145,43.0843],[-3.0158,43.08675],[-3.01495,43.08795],[-3.01575,43.08885],[-3.01845,43.089],[-3.01935,43.09015],[-3.0222,43.09005],[-3.0192,43.0863],[-3.0184,43.0846],[-3.01565,43.08315],[-3.014,43.08175]]]]},"properties":{"CODIGO":"F135A","A_FUNC_CAS":"AYALA","ZLS":"Fotovoltaica","HECTARIAS":43.0781361064}},
{"type":"Feature","geometry":{"type":"MultiPolygon","coordinates":[[[[-2.9811,43.06745],[-2.97975,43.0673],[-2.97915,43.06895],[-2.98165,43.0684],[-2.9811,43.06745]]],[[[-2.97965,43.0694],[-2.98065,43.07035],[-2.98135,43.0686],[-2.97965,43.0694]]]]},"properties":{"CODIGO":"F126A","A_FUNC_CAS":"AYALA","ZLS":"Fotovoltaica","HECTARIAS":6.36611732042}},
{"type":"Feature","geometry":{"type":"Polygon","coordinates":[[[-2.5572,42.8481],[-2.55495,42.85015],[-2.5582,42.84985],[-2.5634,42.8482],[-2.56155,42.8466],[-2.55955,42.8466],[-2.5572,42.8481]]]},"properties":{"CODIGO":"F061A","A_FUNC_CAS":"ALAVA CENTRAL","ZLS":"Fotovoltaica","HECTARIAS":15.6489642331}},
{"type":"Feature","geometry":{"type":"MultiPolygon","coordinates":[[[[-2.37315,42.66995],[-2.3734,42.67025],[-2.3739,42.6705],[-2.37425,42.6708],[-2.37835,42.6705],[-2.37885,42.67105],[-2.38125,42.67155],[-2.3834,42.6713],[-2.38435,42.66995],[-2.38585,42.6708],[-2.38635,42.6685],[-2.38355,42.66555],[-2.38215,42.6647],[-2.3813,42.66695],[-2.3791,42.6689],[-2.37665,42.6698],[-2.3746,42.67005],[-2.37315,42.66995]]],[[[-2.3721,42.67015],[-2.37095,42.67065],[-2.37155,42.6714],[-2.37215,42.67275],[-2.37405,42.673],[-2.37485,42.6726],[-2.37485,42.67125],[-2.37455,42.67125],[-2.3739,42.6705],[-2.3734,42.67025],[-2.37265,42.66945],[-2.3721,42.67015]]],[[[-2.3726,42.6735],[-2.37605,42.6735],[-2.37605,42.67315],[-2.37405,42.67305],[-2.3728,42.67285],[-2.37235,42.6729],[-2.3721,42.67275],[-2.37155,42.6714],[-2.3705,42.6707],[-2.36895,42.67105],[-2.3705,42.67325],[-2.3726,42.6735]]]]},"properties":{"CODIGO":"F006A","A_FUNC_CAS":"ALAVA CENTRAL","ZLS":"Fotovoltaica","HECTARIAS":54.5240682017}},
{"type":"Feature","geometry":{"type":"MultiPolygon","coordinates":[[[[-2.4654,42.8624],[-2.46575,42.86105],[-2.4632,42.8604],[-2.4632,42.86195],[-2.4613,42.86145],[-2.46055,42.8596],[-2.4526,42.8576],[-2.44765,42.8574],[-2.44735,42.85945],[-2.4521,42.8602],[-2.4554,42.86115],[-2.4611,42.86195],[-2.4632,42.8625],[-2.4638,42.8612],[-2.4654,42.8624]]],[[[-2.4469,42.8601],[-2.44735,42.8579],[-2.4464,42.85725],[-2.44155,42.8578],[-2.4381,42.85785],[-2.4372,42.85915],[-2.44005,42.8603],[-2.44335,42.86095],[-2.4467,42.861],[-2.4469,42.8601]]]]},"properties":{"CODIGO":"F073A","A_FUNC_CAS":"ALAVA CENTRAL","ZLS":"Fotovoltaica","HECTARIAS":62.9079155242}},
{"type":"Feature","geometry":{"type":"Polygon","coordinates":[[[-2.9875,42.7306],[-2.98895,42.7277],[-2.9878,42.7275],[-2.98825,42.72575],[-2.98475,42.72595],[-2.9832,42.72565],[-2.9807,42.7244],[-2.978,42.72205],[-2.9783,42.725],[-2.9771,42.72655],[-2.98015,42.7268],[-2.98255,42.72765],[-2.98225,42.7284],[-2.98425,42.72915],[-2.9878,42.72995],[-2.9875,42.7306]]]},"properties":{"CODIGO":"F018A","A_FUNC_CAS":"ALAVA CENTRAL","ZLS":"Fotovoltaica","HECTARIAS":30.361456384}},
{"type":"Feature","geometry":{"type":"MultiPolygon","coordinates":[[[[-2.42625,42.8752],[-2.43005,42.8765],[-2.4307,42.87605],[-2.4296,42.8753],[-2.42935,42.87355],[-2.426,42.8728],[-2.4273,42.8744],[-2.42625,42.8752]]],[[[-2.4325,42.8751],[-2.4321,42.87455],[-2.4296,42.8744],[-2.42965,42.8753],[-2.4315,42.87625],[-2.43375,42.87635],[-2.43415,42.8751],[-2.4325,42.8751]]]]},"properties":{"CODIGO":"F082A","A_FUNC_CAS":"ALAVA CENTRAL","ZLS":"Fotovoltaica","HECTARIAS":24.2303519491}},
{"type":"Feature","geometry":{"type":"Polygon","coordinates":[[[-3.03425,42.7851],[-3.0365,42.7861],[-3.0382,42.78555],[-3.03695,42.78395],[-3.0336,42.78395],[-3.02995,42.78255],[-3.0312,42.7844],[-3.0336,42.7844],[-3.03425,42.7851]]]},"properties":{"CODIGO":"F034A","A_FUNC_CAS":"ALAVA CENTRAL","ZLS":"Fotovoltaica","HECTARIAS":12.8496380668}},
{"type":"Feature","geometry":{"type":"Polygon","coordinates":[[[-2.9499,42.7136],[-2.95205,42.71405],[-2.95245,42.71285],[-2.95115,42.71125],[-2.9485,42.71085],[-2.95175,42.71305],[-2.9499,42.7136]]]},"properties":{"CODIGO":"F011A","A_FUNC_CAS":"ALAVA CENTRAL","ZLS":"Fotovoltaica","HECTARIAS":12.6466581431}},
{"type":"Feature","geometry":{"type":"Polygon","coordinates":[[[-2.6535,42.89205],[-2.65735,42.8923],[-2.6583,42.89085],[-2.65955,42.89015],[-2.66035,42.88805],[-2.6645,42.8856],[-2.6574,42.8873],[-2.6555,42.8874],[-2.6544,42.88845],[-2.65455,42.88995],[-2.6535,42.89205]]]},"properties":{"CODIGO":"F094A","A_FUNC_CAS":"ALAVA CENTRAL","ZLS":"Fotovoltaica","HECTARIAS":25.7144314534}},
{"type":"Feature","geometry":{"type":"MultiPolygon","coordinates":[[[[-2.55395,42.8344],[-2.55365,42.8368],[-2.5537,42.8381],[-2.55535,42.838],[-2.5552,42.83465],[-2.55765,42.83665],[-2.56045,42.8361],[-2.5609,42.8344],[-2.56035,42.832],[-2.55475,42.8319],[-2.55395,42.8344]]],[[[-2.55215,42.83465],[-2.55365,42.83595],[-2.5541,42.8338],[-2.5547,42.8315],[-2.5511,42.83185],[-2.55185,42.8326],[-2.55215,42.83465]]],[[[-2.5558,42.83915],[-2.55545,42.83805],[-2.5537,42.83815],[-2.5532,42.83935],[-2.5558,42.83915]]],[[[-2.55125,42.83805],[-2.5512,42.83935],[-2.55315,42.83935],[-2.5535,42.8385],[-2.55125,42.83805]]]]},"properties":{"CODIGO":"F057A","A_FUNC_CAS":"ALAVA CENTRAL","ZLS":"Fotovoltaica","HECTARIAS":51.9422543744}},
{"type":"Feature","geometry":{"type":"MultiPolygon","coordinates":[[[[-2.79315,42.85355],[-2.79195,42.85245],[-2.7904,42.85285],[-2.7951,42.85615],[-2.7947,42.85455],[-2.79315,42.85355]]],[[[-2.79045,42.8592],[-2.7912,42.85975],[-2.79555,42.8607],[-2.7965,42.8599],[-2.7965,42.85855],[-2.7922,42.8549],[-2.7901,42.85355],[-2.78685,42.8538],[-2.78765,42.8547],[-2.78995,42.85525],[-2.7913,42.85705],[-2.7904,42.8579],[-2.79045,42.8592]]],[[[-2.79085,42.8598],[-2.7924,42.86035],[-2.7944,42.8629],[-2.79595,42.8627],[-2.79495,42.86065],[-2.79085,42.8598]]]]},"properties":{"CODIGO":"F069A","A_FUNC_CAS":"ALAVA CENTRAL","ZLS":"Fotovoltaica","HECTARIAS":44.1233195371}},
{"type":"Feature","geometry":{"type":"Polygon","coordinates":[[[-2.96965,43.0128],[-2.97035,43.0154],[-2.9721,43.0138],[-2.9718,43.01225],[-2.96965,43.0128]]]},"properties":{"CODIGO":"F119A","A_FUNC_CAS":"AYALA","ZLS":"Fotovoltaica","HECTARIAS":5.1289004785}},
{"type":"Feature","geometry":{"type":"Polygon","coordinates":[[[-2.36755,43.12125],[-2.3667,43.1202],[-2.367,43.1187],[-2.36415,43.12055],[-2.3657,43.12125],[-2.36755,43.12125]]]},"properties":{"CODIGO":"F140G","A_FUNC_CAS":"ALTO DEBA","ZLS":"Fotovoltaica","HECTARIAS":5.91274941941}},
{"type":"Feature","geometry":{"type":"Polygon","coordinates":[[[-2.69765,42.9061],[-2.69695,42.90445],[-2.6956,42.90425],[-2.69345,42.90515],[-2.6928,42.90805],[-2.6921,42.90925],[-2.69375,42.90985],[-2.6959,42.9095],[-2.69835,42.9085],[-2.69765,42.9061]]]},"properties":{"CODIGO":"F107A","A_FUNC_CAS":"ALAVA CENTRAL","ZLS":"Fotovoltaica","HECTARIAS":20.8977955042}},
{"type":"Feature","geometry":{"type":"Polygon","coordinates":[[[-2.51045,42.8095],[-2.50955,42.8095],[-2.5098,42.81265],[-2.51285,42.8136],[-2.5116,42.81015],[-2.51045,42.8095]]]},"properties":{"CODIGO":"F042A","A_FUNC_CAS":"ALAVA CENTRAL","ZLS":"Fotovoltaica","HECTARIAS":13.4097073066}},
{"type":"Feature","geometry":{"type":"Polygon","coordinates":[[[-2.95665,43.0586],[-2.9582,43.0591],[-2.95855,43.0577],[-2.9598,43.0561],[-2.9607,43.05255],[-2.96225,43.05255],[-2.95855,43.0491],[-2.95765,43.0503],[-2.9595,43.0521],[-2.95905,43.0546],[-2.9597,43.0554],[-2.95855,43.05725],[-2.9561,43.05795],[-2.95665,43.0586]]]},"properties":{"CODIGO":"F123A","A_FUNC_CAS":"AYALA","ZLS":"Fotovoltaica","HECTARIAS":21.8489516069}},
{"type":"Feature","geometry":{"type":"MultiPolygon","coordinates":[[[[-2.4569,42.85765],[-2.4601,42.85845],[-2.4606,42.85605],[-2.4544,42.85425],[-2.4492,42.8535],[-2.44915,42.85455],[-2.4488,42.8562],[-2.4569,42.85765]]],[[[-2.4633,42.85545],[-2.4616,42.85495],[-2.46085,42.8561],[-2.46525,42.8575],[-2.4653,42.85625],[-2.4633,42.85545]]],[[[-2.4647,42.8597],[-2.46565,42.85785],[-2.4608,42.85615],[-2.4602,42.85845],[-2.4647,42.8597]]]]},"properties":{"CODIGO":"F066A","A_FUNC_CAS":"ALAVA CENTRAL","ZLS":"Fotovoltaica","HECTARIAS":49.1349336834}}
]}